[
    {
        "Altitude(m)": 612513.9450093037,
        "Argument of Periapsis(deg)": 0.0,
        "Eccentricity": 0.0,
        "Inclination(deg)": 60.0,
        "Latitude(deg)": -28.13600661461823,
        "Longitude(deg)": -142.086930764679,
        "Mean Anomaly(deg)": 212.72730000000004,
        "RAAN(deg)": 120.0,
        "Satellite Name": "Test1 541",
        "Satellite Number": 541,
        "Semi-Major Axis(m)": 6980739.136638005,
        "Time(s)": 0
    },
    {
        "Altitude(m)": 612708.3133095525,
        "Argument of Periapsis(deg)": 0.00010418945913296404,
        "Eccentricity": 0.0,
        "Inclination(deg)": 60.0,
        "Latitude(deg)": -28.64774630617895,
        "Longitude(deg)": -141.72970122624685,
        "Mean Anomaly(deg)": 213.34740614546183,
        "RAAN(deg)": 119.99957995086024,
        "Satellite Name": "Test1 541",
        "Satellite Number": 541,
        "Semi-Major Axis(m)": 6980739.136638005,
        "Time(s)": 10
    }
]